LEMUR-1                 
1 40044U 14033AL  26159.40097071  .00002204  00000+0  25774-3 0  9999
2 40044  97.7869 309.4026 0049738 106.6533 254.0151 14.85211366644165
LEMUR-2-GREENBERG       
1 42837U 17042N   26159.46075249  .00014878  00000+0  49735-3 0  9996
2 42837  97.3822 340.1280 0009369  44.0124 316.1861 15.31058959487053
LEMUR-2-ANDIS           
1 42838U 17042P   26159.31418661  .00018543  00000+0  55602-3 0  9993
2 42838  97.3686 340.1363 0008903  43.6827 316.5119 15.34491295487093
LEMUR-2-MONSON          
1 42839U 17042Q   26159.31970610  .00012957  00000+0  47962-3 0  9994
2 42839  97.4083 339.9733 0007026  36.5128 323.6589 15.27777072486814
LEMUR-2-FURIAUS         
1 42840U 17042R   26159.44835441  .00015692  00000+0  54249-3 0  9997
2 42840  97.3774 338.0911 0008524  95.9048 264.3165 15.29962356486874
LEMUR-2-PETERG          
1 42841U 17042S   26159.48856020  .00019468  00000+0  60182-3 0  9996
2 42841  97.3995 344.5080 0003948  29.2168 330.9294 15.33546022487100
LEMUR-2-DEMBITZ         
1 42842U 17042T   26159.46853963  .00013408  00000+0  46320-3 0  9994
2 42842  97.3828 341.1277 0007458  56.9439 303.2517 15.30030271487017
LEMUR-2-ZACHARY         
1 42845U 17042W   26159.02199327  .00046326  00000+0  83982-3 0  9996
2 42845  97.3614 350.4691 0003536  65.1620 294.9998 15.49476173487781
LEMUR-2-AMANDA-SVANTE   
1 48269U 21034B   26159.48634078  .00026141  00000+0  80100-3 0  9997
2 48269  97.5757 237.5463 0001286 243.0902 117.0209 15.33774210279728
LEMUR-2-SPECIAL-K       
1 48273U 21034F   26159.50791523  .00138199  00000+0  15584-2 0  9994
2 48273  97.5648 245.7541 0003226 232.4890 127.6075 15.62059401280331
LEMUR-2-EMBRIONOVIS     
1 56970U 23084AQ  26159.35016111  .00011715  00000+0  32216-3 0  9996
2 56970  97.6281 303.2130 0008353 354.5892   5.5261 15.37328141166321
LEMUR-2-DEVERILL-M-T    
1 57391U 23100F   26159.07059470  .00030234  00000+0  77515-3 0  9995
2 57391  99.4478 195.1998 0007184  78.2426 281.9619 15.39306750159841
LEMUR-2-BASS            
1 58259U 23174D   26159.19565521  .00015161  00000+0  34785-3 0  9996
2 58259  97.3845 243.7848 0007046 191.7508 168.3577 15.42795954143973
LEMUR-2-JK0903EM1407    
1 58336U 23174CJ  26159.24302856  .00022483  00000+0  38512-3 0  9995
2 58336  97.3909 249.4665 0005915 144.6569 215.5076 15.51220603144342
LEMUR-2-MJR092620       
1 58340U 23174CN  26159.47837931  .00017203  00000+0  37173-3 0  9998
2 58340  97.3967 249.3496 0007040 143.3163 216.8568 15.44553417144309
LEMUR-2-NIMBUS2000      
1 58899U 24022A   26159.50101406  .00016715  00000+0  42384-3 0  9992
2 58899  97.4121   9.3952 0009998 142.6637 217.5305 15.39719144130930
LEMUR-2-VALHALLA        
1 58900U 24022B   26159.49544670  .00015322  00000+0  39266-3 0  9995
2 58900  97.4119   9.3849 0010540 138.9662 221.2378 15.39409025130932
LEMUR-2-OBA-NI-JESU     
1 58902U 24022D   26159.13691993  .01105389  73752-3  12740-2 0  9998
2 58902  97.3720  23.6731 0004544 198.6577 161.4540 16.09129280131875
LEMUR-2-CAEL            
1 58903U 24022E   26159.38266601  .00015543  00000+0  38216-3 0  9990
2 58903  97.4104  10.1910 0009136 123.3980 236.8142 15.40685544130988
LEMUR-2-JOHNNYTRUONG    
1 59146U 24043BA  26159.36300612  .00032364  00000+0  40388-3 0  9995
2 59146  97.5374 310.5249 0004531 204.0195 156.0851 15.59808527126667
LEMUR-2-TOMATOKECHUP    
1 60471U 24149D   26159.18192461  .00009672  00000+0  27958-3 0  9990
2 60471  97.3794 241.2073 0000553 202.0259 158.0961 15.35843091100786
LEMUR-2-STELLA          
1 60533U 24149BT  26159.47685963  .00009369  00000+0  55497-3 0  9997
2 60533  97.6731 241.8953 0001937 100.0154 260.1294 15.11620627 99187
LEMUR-2-MARHISYAM       
1 60536U 24149BW  26159.18916537  .00009562  00000+0  57494-3 0  9996
2 60536  97.6873 242.0463 0003013 135.4606 224.6866 15.11073553 99121
LEMUR-2-AHMED-ASRAR     
1 60576U 24149DN  26159.16573669  .00010047  00000+0  58037-3 0  9997
2 60576  97.6999 244.0809 0002654  64.5121 295.6383 15.12509708 99202
LEMUR-2-LLOYD           
1 60577U 24149DP  26159.48907900  .00008808  00000+0  55970-3 0  9997
2 60577  97.6745 240.6147 0004491 160.5650 199.5751 15.09071759 99087
LEMUR-2-SQUIRRELCOMM    
1 60578U 24149DQ  26159.49142146  .00005622  00000+0  37885-3 0  9998
2 60578  97.6714 240.4311 0006944  85.7681 274.4340 15.07055616 99092
LEMUR-2-SIERRINI        
1 60579U 24149DR  26159.21080262  .00008729  00000+0  52974-3 0  9996
2 60579  97.6837 241.7651 0005079 190.6952 169.4170 15.10757609 99106
LEMUR-2-WILSON          
1 62694U 25009CP  26159.46172957  .00001777  00000+0  16719-3 0  9995
2 62694  97.7026 238.0799 0004588  75.7823 284.3907 14.95129665 76054
LEMUR-2-STAR-FOX        
1 62696U 25009CR  26159.50138616  .00007864  00000+0  59842-3 0  9993
2 62696  97.6943 241.1734 0002933 135.0972 225.0490 15.02373903 76250
LEMUR-2-ARIANNA         
1 62699U 25009CU  26159.16659559  .00007360  00000+0  56078-3 0  9991
2 62699  97.6881 240.6226 0003208 143.4513 216.6931 15.02348675 76203
